start=new Date('2023-06-21T00:00:00.000Z').valueOf();
sats=[{"CLASSIFICATION_TYPE":"U","DECAY_DATE":null,"ECCENTRICITY":"0.00011090","INCLINATION":"53.2180","SITE":"AFETR","MEAN_ELEMENT_THEORY":"SGP4","RCS_SIZE":"LARGE","REV_AT_EPOCH":"4306","REF_FRAME":"TEME","OBJECT_NAME":"STARLINK-4750","CENTER_NAME":"EARTH","OBJECT_ID":"2022-114Z","ELEMENT_SET_NO":"999","EPHEMERIS_TYPE":"0","APOAPSIS":"540.517","PERIAPSIS":"538.983","NORAD_CAT_ID":"53841","GP_ID":"234394390","SEMIMAJOR_AXIS":"6917.885","MEAN_ANOMALY":"269.0085","LAUNCH_DATE":"2022-09-19","ARG_OF_PERICENTER":"91.1034","EPOCH":"2023-06-20T17:02:45.991392","MEAN_MOTION":"15.08838433","OBJECT_TYPE":"PAYLOAD","BSTAR":"0.00001600100000","MEAN_MOTION_DOT":"-0.00000033","TIME_SYSTEM":"UTC","RA_OF_ASC_NODE":"71.9087","TLE_LINE1":"1 53841U 22114Z   23171.71025453 -.00000033  00000-0  16001-4 0  9991","FILE":"3938544","PERIOD":"95.438","COUNTRY_CODE":"US","TLE_LINE2":"2 53841  53.2180  71.9087 0001109  91.1034 269.0085 15.08838433 43069","MEAN_MOTION_DDOT":"0.0000000000000"},{"MEAN_MOTION":"15.08842847","OBJECT_TYPE":"PAYLOAD","BSTAR":"0.00027912000000","TIME_SYSTEM":"UTC","MEAN_MOTION_DOT":"0.00004157","MEAN_ANOMALY":"269.0888","LAUNCH_DATE":"2022-09-19","EPOCH":"2023-06-20T19:52:18.380928","ARG_OF_PERICENTER":"91.0230","MEAN_MOTION_DDOT":"0.0000000000000","RA_OF_ASC_NODE":"71.2213","TLE_LINE1":"1 53842U 22114AA  23171.82799052  .00004157  00000-0  27912-3 0  9999","FILE":"3938544","PERIOD":"95.437","COUNTRY_CODE":"US","TLE_LINE2":"2 53842  53.2162  71.2213 0001095  91.0230 269.0888 15.08842847 43082","INCLINATION":"53.2162","SITE":"AFETR","CLASSIFICATION_TYPE":"U","DECAY_DATE":null,"ECCENTRICITY":"0.00010950","CENTER_NAME":"EARTH","OBJECT_ID":"2022-114AA","ELEMENT_SET_NO":"999","EPHEMERIS_TYPE":"0","APOAPSIS":"540.494","PERIAPSIS":"538.979","NORAD_CAT_ID":"53842","GP_ID":"234394641","SEMIMAJOR_AXIS":"6917.872","MEAN_ELEMENT_THEORY":"SGP4","RCS_SIZE":"LARGE","REV_AT_EPOCH":"4308","REF_FRAME":"TEME","OBJECT_NAME":"STARLINK-4754"},{"DECAY_DATE":null,"CLASSIFICATION_TYPE":"U","ECCENTRICITY":"0.00009450","SITE":"AFETR","INCLINATION":"53.2170","RCS_SIZE":"LARGE","MEAN_ELEMENT_THEORY":"SGP4","OBJECT_NAME":"STARLINK-4769","REF_FRAME":"TEME","REV_AT_EPOCH":"4306","ELEMENT_SET_NO":"999","EPHEMERIS_TYPE":"0","OBJECT_ID":"2022-114AB","CENTER_NAME":"EARTH","GP_ID":"234394889","SEMIMAJOR_AXIS":"6917.880","NORAD_CAT_ID":"53843","PERIAPSIS":"539.091","APOAPSIS":"540.399","MEAN_ANOMALY":"273.9277","ARG_OF_PERICENTER":"86.1823","EPOCH":"2023-06-20T16:57:27.418176","LAUNCH_DATE":"2022-09-19","MEAN_MOTION":"15.08840183","TIME_SYSTEM":"UTC","MEAN_MOTION_DOT":"0.00000203","OBJECT_TYPE":"PAYLOAD","BSTAR":"0.00003085300000","FILE":"3938544","RA_OF_ASC_NODE":"71.8858","TLE_LINE1":"1 53843U 22114AB  23171.70656734  .00000203  00000-0  30853-4 0  9993","TLE_LINE2":"2 53843  53.2170  71.8858 0000945  86.1823 273.9277 15.08840183 43064","COUNTRY_CODE":"US","PERIOD":"95.438","MEAN_MOTION_DDOT":"0.0000000000000"},{"CLASSIFICATION_TYPE":"U","DECAY_DATE":null,"ECCENTRICITY":"0.00011230","INCLINATION":"53.2173","SITE":"AFETR","MEAN_ELEMENT_THEORY":"SGP4","RCS_SIZE":"LARGE","REV_AT_EPOCH":"4309","OBJECT_NAME":"STARLINK-4745","REF_FRAME":"TEME","CENTER_NAME":"EARTH","OBJECT_ID":"2022-114AC","ELEMENT_SET_NO":"999","EPHEMERIS_TYPE":"0","APOAPSIS":"540.521","PERIAPSIS":"538.967","GP_ID":"234394140","SEMIMAJOR_AXIS":"6917.879","NORAD_CAT_ID":"53844","MEAN_ANOMALY":"276.4099","LAUNCH_DATE":"2022-09-19","EPOCH":"2023-06-20T21:17:04.907904","ARG_OF_PERICENTER":"83.7021","MEAN_MOTION":"15.08840331","BSTAR":"-0.00005311300000","OBJECT_TYPE":"PAYLOAD","TIME_SYSTEM":"UTC","MEAN_MOTION_DOT":"-0.00001133","TLE_LINE1":"1 53844U 22114AC  23171.88686236 -.00001133  00000-0 -53113-4 0  9992","RA_OF_ASC_NODE":"70.8784","FILE":"3938544","PERIOD":"95.438","COUNTRY_CODE":"US","TLE_LINE2":"2 53844  53.2173  70.8784 0001123  83.7021 276.4099 15.08840331 43095","MEAN_MOTION_DDOT":"0.0000000000000"},{"MEAN_MOTION_DOT":"0.00001514","TIME_SYSTEM":"UTC","OBJECT_TYPE":"PAYLOAD","BSTAR":"0.00011319000000","MEAN_MOTION":"15.08837688","EPOCH":"2023-06-20T10:25:18.227136","ARG_OF_PERICENTER":"92.7072","LAUNCH_DATE":"2022-09-19","MEAN_ANOMALY":"267.4048","MEAN_MOTION_DDOT":"0.0000000000000","TLE_LINE2":"2 53845  53.2170  73.0464 0001120  92.7072 267.4048 15.08837688 43024","PERIOD":"95.438","COUNTRY_CODE":"US","RA_OF_ASC_NODE":"73.0464","TLE_LINE1":"1 53845U 22114AD  23171.43423874  .00001514  00000-0  11319-3 0  9993","FILE":"3938135","SITE":"AFETR","INCLINATION":"53.2170","ECCENTRICITY":"0.00011200","CLASSIFICATION_TYPE":"U","DECAY_DATE":null,"GP_ID":"234360906","NORAD_CAT_ID":"53845","SEMIMAJOR_AXIS":"6917.887","APOAPSIS":"540.527","PERIAPSIS":"538.978","ELEMENT_SET_NO":"999","EPHEMERIS_TYPE":"0","CENTER_NAME":"EARTH","OBJECT_ID":"2022-114AD","OBJECT_NAME":"STARLINK-4753","REF_FRAME":"TEME","REV_AT_EPOCH":"4302","RCS_SIZE":"LARGE","MEAN_ELEMENT_THEORY":"SGP4"},{"MEAN_MOTION_DDOT":"0.0000000000000","PERIOD":"95.437","COUNTRY_CODE":"US","TLE_LINE2":"2 53846  53.2180  70.8340 0001105  98.0622 262.0496 15.08842164 43097","RA_OF_ASC_NODE":"70.8340","TLE_LINE1":"1 53846U 22114AE  23171.87949083  .00000256  00000-0  34193-4 0  9995","FILE":"3938544","BSTAR":"0.00003419300000","OBJECT_TYPE":"PAYLOAD","TIME_SYSTEM":"UTC","MEAN_MOTION_DOT":"0.00000256","MEAN_MOTION":"15.08842164","LAUNCH_DATE":"2022-09-19","ARG_OF_PERICENTER":"98.0622","EPOCH":"2023-06-20T21:06:28.007712","MEAN_ANOMALY":"262.0496","APOAPSIS":"540.503","PERIAPSIS":"538.974","GP_ID":"234395141","SEMIMAJOR_AXIS":"6917.874","NORAD_CAT_ID":"53846","CENTER_NAME":"EARTH","OBJECT_ID":"2022-114AE","EPHEMERIS_TYPE":"0","ELEMENT_SET_NO":"999","REV_AT_EPOCH":"4309","OBJECT_NAME":"STARLINK-4746","REF_FRAME":"TEME","MEAN_ELEMENT_THEORY":"SGP4","RCS_SIZE":"LARGE","INCLINATION":"53.2180","SITE":"AFETR","ECCENTRICITY":"0.00011050","CLASSIFICATION_TYPE":"U","DECAY_DATE":null},{"MEAN_MOTION_DDOT":"0.0000000000000","TLE_LINE1":"1 53847U 22114AF  23171.89054588  .00000229  00000-0  32459-4 0  9998","RA_OF_ASC_NODE":"70.8994","FILE":"3938544","TLE_LINE2":"2 53847  53.2174  70.8994 0001050  99.4063 260.7048 15.08839653 43096","PERIOD":"95.438","COUNTRY_CODE":"US","MEAN_MOTION":"15.08839653","MEAN_MOTION_DOT":"0.00000229","TIME_SYSTEM":"UTC","OBJECT_TYPE":"PAYLOAD","BSTAR":"0.00003245900000","MEAN_ANOMALY":"260.7048","ARG_OF_PERICENTER":"99.4063","EPOCH":"2023-06-20T21:22:23.164032","LAUNCH_DATE":"2022-09-19","ELEMENT_SET_NO":"999","EPHEMERIS_TYPE":"0","CENTER_NAME":"EARTH","OBJECT_ID":"2022-114AF","GP_ID":"234395389","NORAD_CAT_ID":"53847","SEMIMAJOR_AXIS":"6917.881","APOAPSIS":"540.473","PERIAPSIS":"539.020","RCS_SIZE":"LARGE","MEAN_ELEMENT_THEORY":"SGP4","REF_FRAME":"TEME","OBJECT_NAME":"STARLINK-4777","REV_AT_EPOCH":"4309","SITE":"AFETR","INCLINATION":"53.2174","CLASSIFICATION_TYPE":"U","DECAY_DATE":null,"ECCENTRICITY":"0.00010500"},{"MEAN_MOTION_DDOT":"0.0000000000000","TLE_LINE2":"2 53848  53.2167  70.7883 0001011  81.2296 278.8811 15.08847676 43091","COUNTRY_CODE":"US","PERIOD":"95.437","FILE":"3938544","RA_OF_ASC_NODE":"70.7883","TLE_LINE1":"1 53848U 22114AG  23171.87211847  .00001161  00000-0  90975-4 0  9993","TIME_SYSTEM":"UTC","MEAN_MOTION_DOT":"0.00001161","BSTAR":"0.00009097500000","OBJECT_TYPE":"PAYLOAD","MEAN_MOTION":"15.08847676","ARG_OF_PERICENTER":"81.2296","EPOCH":"2023-06-20T20:55:51.035808","LAUNCH_DATE":"2022-09-19","MEAN_ANOMALY":"278.8811","NORAD_CAT_ID":"53848","GP_ID":"234393641","SEMIMAJOR_AXIS":"6917.857","PERIAPSIS":"539.023","APOAPSIS":"540.421","ELEMENT_SET_NO":"999","EPHEMERIS_TYPE":"0","OBJECT_ID":"2022-114AG","CENTER_NAME":"EARTH","OBJECT_NAME":"STARLINK-4780","REF_FRAME":"TEME","REV_AT_EPOCH":"4309","RCS_SIZE":"LARGE","MEAN_ELEMENT_THEORY":"SGP4","SITE":"AFETR","INCLINATION":"53.2167","ECCENTRICITY":"0.00010110","DECAY_DATE":null,"CLASSIFICATION_TYPE":"U"},{"INCLINATION":"53.2178","SITE":"AFETR","ECCENTRICITY":"0.00012510","CLASSIFICATION_TYPE":"U","DECAY_DATE":null,"APOAPSIS":"540.602","PERIAPSIS":"538.871","GP_ID":"234394391","NORAD_CAT_ID":"53849","SEMIMAJOR_AXIS":"6917.871","CENTER_NAME":"EARTH","OBJECT_ID":"2022-114AH","ELEMENT_SET_NO":"999","EPHEMERIS_TYPE":"0","REV_AT_EPOCH":"4309","OBJECT_NAME":"STARLINK-4770","REF_FRAME":"TEME","MEAN_ELEMENT_THEORY":"SGP4","RCS_SIZE":"LARGE","OBJECT_TYPE":"PAYLOAD","BSTAR":"0.00004324600000","MEAN_MOTION_DOT":"0.00000401","TIME_SYSTEM":"UTC","MEAN_MOTION":"15.08842984","LAUNCH_DATE":"2022-09-19","EPOCH":"2023-06-20T21:11:46.370976","ARG_OF_PERICENTER":"96.9941","MEAN_ANOMALY":"263.1194","MEAN_MOTION_DDOT":"0.0000000000000","PERIOD":"95.437","COUNTRY_CODE":"US","TLE_LINE2":"2 53849  53.2178  70.8552 0001251  96.9941 263.1194 15.08842984 43092","RA_OF_ASC_NODE":"70.8552","TLE_LINE1":"1 53849U 22114AH  23171.88317559  .00000401  00000-0  43246-4 0  9997","FILE":"3938544"},{"INCLINATION":"53.2166","SITE":"AFETR","DECAY_DATE":null,"CLASSIFICATION_TYPE":"U","ECCENTRICITY":"0.00013150","OBJECT_ID":"2022-114AJ","CENTER_NAME":"EARTH","ELEMENT_SET_NO":"999","EPHEMERIS_TYPE":"0","PERIAPSIS":"538.828","APOAPSIS":"540.647","NORAD_CAT_ID":"53850","GP_ID":"234394642","SEMIMAJOR_AXIS":"6917.872","MEAN_ELEMENT_THEORY":"SGP4","RCS_SIZE":"LARGE","REV_AT_EPOCH":"4309","OBJECT_NAME":"STARLINK-4767","REF_FRAME":"TEME","MEAN_MOTION":"15.08842664","BSTAR":"0.00003183100000","OBJECT_TYPE":"PAYLOAD","MEAN_MOTION_DOT":"0.00000219","TIME_SYSTEM":"UTC","MEAN_ANOMALY":"269.0159","LAUNCH_DATE":"2022-09-19","ARG_OF_PERICENTER":"91.0984","EPOCH":"2023-06-20T20:39:56.176704","MEAN_MOTION_DDOT":"0.0000000000000","FILE":"3938544","TLE_LINE1":"1 53850U 22114AJ  23171.86106686  .00000219  00000-0  31831-4 0  9998","RA_OF_ASC_NODE":"70.7173","COUNTRY_CODE":"US","PERIOD":"95.437","TLE_LINE2":"2 53850  53.2166  70.7173 0001315  91.0984 269.0159 15.08842664 43094"}];
